start=new Date('2023-03-07T00:00:00.000Z').valueOf();
sats=[{"REV_AT_EPOCH":"5722","COUNTRY_CODE":"US","RA_OF_ASC_NODE":"262.1900","OBJECT_NAME":"STARLINK-3575","ELEMENT_SET_NO":"999","MEAN_ANOMALY":"278.0226","GP_ID":"227628396","FILE":"3853141","SEMIMAJOR_AXIS":"6917.877","NORAD_CAT_ID":"51878","CENTER_NAME":"EARTH","APOAPSIS":"540.473","OBJECT_ID":"2022-022AC","BSTAR":"0.00028919000000","TIME_SYSTEM":"UTC","RCS_SIZE":"LARGE","TLE_LINE2":"2 51878  53.2139 262.1900 0001057  82.0886 278.0226 15.08841242 57227","PERIOD":"95.437","MEAN_MOTION_DOT":"0.00004318","INCLINATION":"53.2139","OBJECT_TYPE":"PAYLOAD","EPHEMERIS_TYPE":"0","ECCENTRICITY":"0.00010570","REF_FRAME":"TEME","MEAN_ELEMENT_THEORY":"SGP4","MEAN_MOTION":"15.08841242","EPOCH":"2023-03-06T19:25:30.622944","TLE_LINE1":"1 51878U 22022AC  23065.80938221  .00004318  00000-0  28919-3 0  9994","DECAY_DATE":null,"SITE":"AFETR","ARG_OF_PERICENTER":"82.0886","MEAN_MOTION_DDOT":"0.0000000000000","LAUNCH_DATE":"2022-03-03","CLASSIFICATION_TYPE":"U","PERIAPSIS":"539.010"},{"CLASSIFICATION_TYPE":"U","LAUNCH_DATE":"2022-03-03","MEAN_MOTION_DDOT":"0.0000000000000","PERIAPSIS":"539.024","ECCENTRICITY":"0.00010090","REF_FRAME":"TEME","EPHEMERIS_TYPE":"0","MEAN_MOTION_DOT":"0.00009594","INCLINATION":"53.2142","OBJECT_TYPE":"PAYLOAD","ARG_OF_PERICENTER":"85.6720","DECAY_DATE":null,"SITE":"AFETR","TLE_LINE1":"1 51879U 22022AD  23065.85814069  .00009594  00000-0  61992-3 0  9992","MEAN_ELEMENT_THEORY":"SGP4","MEAN_MOTION":"15.08847521","EPOCH":"2023-03-06T20:35:43.355616","NORAD_CAT_ID":"51879","APOAPSIS":"540.420","CENTER_NAME":"EARTH","FILE":"3853141","SEMIMAJOR_AXIS":"6917.857","GP_ID":"227628147","MEAN_ANOMALY":"274.4388","TLE_LINE2":"2 51879  53.2142 251.9683 0001009  85.6720 274.4388 15.08847521 57369","PERIOD":"95.437","TIME_SYSTEM":"UTC","RCS_SIZE":"LARGE","BSTAR":"0.00061992000000","OBJECT_ID":"2022-022AD","RA_OF_ASC_NODE":"251.9683","REV_AT_EPOCH":"5736","COUNTRY_CODE":"US","ELEMENT_SET_NO":"999","OBJECT_NAME":"STARLINK-3572"},{"OBJECT_NAME":"STARLINK-3566","ELEMENT_SET_NO":"999","REV_AT_EPOCH":"5722","COUNTRY_CODE":"US","RA_OF_ASC_NODE":"262.0454","BSTAR":"0.00030957000000","OBJECT_ID":"2022-022AE","TLE_LINE2":"2 51880  53.2147 262.0454 0001146  91.5864 268.5260 15.08847276 57227","PERIOD":"95.437","TIME_SYSTEM":"UTC","RCS_SIZE":"LARGE","GP_ID":"227627396","MEAN_ANOMALY":"268.5260","NORAD_CAT_ID":"51880","APOAPSIS":"540.516","CENTER_NAME":"EARTH","FILE":"3853141","SEMIMAJOR_AXIS":"6917.858","TLE_LINE1":"1 51880U 22022AE  23065.83977463  .00004643  00000-0  30957-3 0  9997","MEAN_MOTION":"15.08847276","MEAN_ELEMENT_THEORY":"SGP4","EPOCH":"2023-03-06T20:09:16.528032","ARG_OF_PERICENTER":"91.5864","SITE":"AFETR","DECAY_DATE":null,"EPHEMERIS_TYPE":"0","MEAN_MOTION_DOT":"0.00004643","INCLINATION":"53.2147","OBJECT_TYPE":"PAYLOAD","REF_FRAME":"TEME","ECCENTRICITY":"0.00011460","PERIAPSIS":"538.930","LAUNCH_DATE":"2022-03-03","CLASSIFICATION_TYPE":"U","MEAN_MOTION_DDOT":"0.0000000000000"},{"REV_AT_EPOCH":"5742","COUNTRY_CODE":"US","RA_OF_ASC_NODE":"251.7044","OBJECT_NAME":"STARLINK-3504","ELEMENT_SET_NO":"999","GP_ID":"227627646","MEAN_ANOMALY":"269.0233","APOAPSIS":"540.555","CENTER_NAME":"EARTH","NORAD_CAT_ID":"51881","SEMIMAJOR_AXIS":"6917.839","FILE":"3853141","BSTAR":"0.00043405000000","OBJECT_ID":"2022-022AF","PERIOD":"95.437","TLE_LINE2":"2 51881  53.2129 251.7044 0001231  91.0900 269.0233 15.08853644 57423","RCS_SIZE":"LARGE","TIME_SYSTEM":"UTC","EPHEMERIS_TYPE":"0","OBJECT_TYPE":"PAYLOAD","MEAN_MOTION_DOT":"0.00006629","INCLINATION":"53.2129","ECCENTRICITY":"0.00012310","REF_FRAME":"TEME","TLE_LINE1":"1 51881U 22022AF  23065.91701386  .00006629  00000-0  43405-3 0  9994","MEAN_MOTION":"15.08853644","EPOCH":"2023-03-06T22:00:29.997504","MEAN_ELEMENT_THEORY":"SGP4","ARG_OF_PERICENTER":"91.0900","DECAY_DATE":null,"SITE":"AFETR","CLASSIFICATION_TYPE":"U","LAUNCH_DATE":"2022-03-03","MEAN_MOTION_DDOT":"0.0000000000000","PERIAPSIS":"538.852"},{"LAUNCH_DATE":"2022-03-03","CLASSIFICATION_TYPE":"U","MEAN_MOTION_DDOT":"0.0000000000000","PERIAPSIS":"538.839","REF_FRAME":"TEME","ECCENTRICITY":"0.00012890","EPHEMERIS_TYPE":"0","OBJECT_TYPE":"PAYLOAD","INCLINATION":"53.2153","MEAN_MOTION_DOT":"0.00002987","ARG_OF_PERICENTER":"81.9249","DECAY_DATE":null,"SITE":"AFETR","TLE_LINE1":"1 51882U 22022AG  23065.86181858  .00002987  00000-0  20563-3 0  9998","EPOCH":"2023-03-06T20:41:01.125312","MEAN_MOTION":"15.08844673","MEAN_ELEMENT_THEORY":"SGP4","CENTER_NAME":"EARTH","APOAPSIS":"540.623","NORAD_CAT_ID":"51882","SEMIMAJOR_AXIS":"6917.866","FILE":"3853141","GP_ID":"227627897","MEAN_ANOMALY":"278.1889","PERIOD":"95.437","TLE_LINE2":"2 51882  53.2153 251.9454 0001289  81.9249 278.1889 15.08844673 57414","RCS_SIZE":"LARGE","TIME_SYSTEM":"UTC","BSTAR":"0.00020563000000","OBJECT_ID":"2022-022AG","RA_OF_ASC_NODE":"251.9454","REV_AT_EPOCH":"5741","COUNTRY_CODE":"US","ELEMENT_SET_NO":"999","OBJECT_NAME":"STARLINK-3570"},{"OBJECT_ID":"2022-022AH","BSTAR":"0.00091412000000","RCS_SIZE":"LARGE","TIME_SYSTEM":"UTC","PERIOD":"95.437","TLE_LINE2":"2 51883  53.2147 252.0306 0000982  79.1923 280.9179 15.08853196 57359","MEAN_ANOMALY":"280.9179","GP_ID":"227628646","SEMIMAJOR_AXIS":"6917.840","FILE":"3853141","CENTER_NAME":"EARTH","APOAPSIS":"540.384","NORAD_CAT_ID":"51883","OBJECT_NAME":"STARLINK-3576","ELEMENT_SET_NO":"999","REV_AT_EPOCH":"5735","COUNTRY_CODE":"US","RA_OF_ASC_NODE":"252.0306","PERIAPSIS":"539.026","MEAN_MOTION_DDOT":"0.0000000000000","LAUNCH_DATE":"2022-03-03","CLASSIFICATION_TYPE":"U","MEAN_MOTION":"15.08853196","MEAN_ELEMENT_THEORY":"SGP4","EPOCH":"2023-03-06T20:15:53.985312","TLE_LINE1":"1 51883U 22022AH  23065.84437483  .00014295  00000-0  91412-3 0  9991","SITE":"AFETR","DECAY_DATE":null,"ARG_OF_PERICENTER":"79.1923","OBJECT_TYPE":"PAYLOAD","INCLINATION":"53.2147","MEAN_MOTION_DOT":"0.00014295","EPHEMERIS_TYPE":"0","REF_FRAME":"TEME","ECCENTRICITY":"0.00009820"},{"MEAN_MOTION_DDOT":"0.0000000000000","CLASSIFICATION_TYPE":"U","LAUNCH_DATE":"2022-03-03","PERIAPSIS":"538.956","REF_FRAME":"TEME","ECCENTRICITY":"0.00010910","OBJECT_TYPE":"PAYLOAD","INCLINATION":"53.2160","MEAN_MOTION_DOT":"0.00002055","EPHEMERIS_TYPE":"0","DECAY_DATE":null,"SITE":"AFETR","ARG_OF_PERICENTER":"86.5037","MEAN_MOTION":"15.08851361","EPOCH":"2023-03-06T20:30:24.475680","MEAN_ELEMENT_THEORY":"SGP4","TLE_LINE1":"1 51884U 22022AJ  23065.85444995  .00002055  00000-0  14712-3 0  9998","SEMIMAJOR_AXIS":"6917.846","FILE":"3853141","CENTER_NAME":"EARTH","APOAPSIS":"540.465","NORAD_CAT_ID":"51884","MEAN_ANOMALY":"273.6080","GP_ID":"227626897","RCS_SIZE":"LARGE","TIME_SYSTEM":"UTC","PERIOD":"95.437","TLE_LINE2":"2 51884  53.2160 251.9838 0001091  86.5037 273.6080 15.08851361 57445","OBJECT_ID":"2022-022AJ","BSTAR":"0.00014712000000","RA_OF_ASC_NODE":"251.9838","COUNTRY_CODE":"US","REV_AT_EPOCH":"5744","ELEMENT_SET_NO":"999","OBJECT_NAME":"STARLINK-3577"},{"PERIAPSIS":"538.902","MEAN_MOTION_DDOT":"0.0000000000000","LAUNCH_DATE":"2022-03-03","CLASSIFICATION_TYPE":"U","DECAY_DATE":null,"SITE":"AFETR","ARG_OF_PERICENTER":"66.5842","MEAN_ELEMENT_THEORY":"SGP4","MEAN_MOTION":"15.08843581","EPOCH":"2023-03-06T21:44:36.575232","TLE_LINE1":"1 51885U 22022AK  23065.90597888  .00003393  00000-0  23117-3 0  9990","ECCENTRICITY":"0.00012040","REF_FRAME":"TEME","INCLINATION":"53.2128","MEAN_MOTION_DOT":"0.00003393","OBJECT_TYPE":"PAYLOAD","EPHEMERIS_TYPE":"0","TIME_SYSTEM":"UTC","RCS_SIZE":"LARGE","TLE_LINE2":"2 51885  53.2128 251.7548 0001204  66.5842 293.5277 15.08843581 57369","PERIOD":"95.437","OBJECT_ID":"2022-022AK","BSTAR":"0.00023117000000","FILE":"3853141","SEMIMAJOR_AXIS":"6917.869","NORAD_CAT_ID":"51885","CENTER_NAME":"EARTH","APOAPSIS":"540.567","MEAN_ANOMALY":"293.5277","GP_ID":"227627147","ELEMENT_SET_NO":"999","OBJECT_NAME":"STARLINK-3584","RA_OF_ASC_NODE":"251.7548","REV_AT_EPOCH":"5736","COUNTRY_CODE":"US"},{"ARG_OF_PERICENTER":"76.1047","SITE":"AFETR","DECAY_DATE":null,"TLE_LINE1":"1 51886U 22022AL  23065.91333960  .00005644  00000-0  37231-3 0  9994","MEAN_MOTION":"15.08847284","EPOCH":"2023-03-06T21:55:12.541440","MEAN_ELEMENT_THEORY":"SGP4","ECCENTRICITY":"0.00011240","REF_FRAME":"TEME","EPHEMERIS_TYPE":"0","MEAN_MOTION_DOT":"0.00005644","INCLINATION":"53.2132","OBJECT_TYPE":"PAYLOAD","PERIAPSIS":"538.946","LAUNCH_DATE":"2022-03-03","CLASSIFICATION_TYPE":"U","MEAN_MOTION_DDOT":"0.0000000000000","ELEMENT_SET_NO":"999","OBJECT_NAME":"STARLINK-3565","RA_OF_ASC_NODE":"251.7205","COUNTRY_CODE":"US","REV_AT_EPOCH":"5737","TLE_LINE2":"2 51886  53.2132 251.7205 0001124  76.1047 284.0070 15.08847284 57371","PERIOD":"95.437","TIME_SYSTEM":"UTC","RCS_SIZE":"LARGE","BSTAR":"0.00037231000000","OBJECT_ID":"2022-022AL","NORAD_CAT_ID":"51886","APOAPSIS":"540.501","CENTER_NAME":"EARTH","FILE":"3853141","SEMIMAJOR_AXIS":"6917.858","GP_ID":"227628397","MEAN_ANOMALY":"284.0070"},{"OBJECT_ID":"2022-022AM","BSTAR":"-0.00019676000000","TIME_SYSTEM":"UTC","RCS_SIZE":"LARGE","TLE_LINE2":"2 51887  53.2127 251.7696 0001456  89.4605 270.6554 15.08828168 57362","PERIOD":"95.438","MEAN_ANOMALY":"270.6554","GP_ID":"227628148","FILE":"3853141","SEMIMAJOR_AXIS":"6917.917","NORAD_CAT_ID":"51887","APOAPSIS":"540.789","CENTER_NAME":"EARTH","OBJECT_NAME":"STARLINK-3551","ELEMENT_SET_NO":"999","REV_AT_EPOCH":"5736","COUNTRY_CODE":"US","RA_OF_ASC_NODE":"251.7696","PERIAPSIS":"538.774","MEAN_MOTION_DDOT":"0.0000000000000","LAUNCH_DATE":"2022-03-03","CLASSIFICATION_TYPE":"U","MEAN_MOTION":"15.08828168","EPOCH":"2023-03-06T21:39:17.634816","MEAN_ELEMENT_THEORY":"SGP4","TLE_LINE1":"1 51887U 22022AM  23065.90228744 -.00003417  00000-0 -19676-3 0  9998","DECAY_DATE":null,"SITE":"AFETR","ARG_OF_PERICENTER":"89.4605","INCLINATION":"53.2127","MEAN_MOTION_DOT":"-0.00003417","OBJECT_TYPE":"PAYLOAD","EPHEMERIS_TYPE":"0","ECCENTRICITY":"0.00014560","REF_FRAME":"TEME"}];
